MALLIGYONG-1            
1 58400U 23179A   24278.88023947  .00015508  00000+0  69916-3 0  9995
2 58400  97.3850 163.8150 0010071  57.5668 302.6541 15.21072225 48405
